DELTA 2 R/B(1)          
1 20453U 90008B   25342.29222227  .00045778  00000+0  74551-3 0  9990
2 20453  35.6072  49.2428 0111690 137.9941 222.9421 15.44717384911940
COSMOS 2058             
1 20465U 90010A   25341.92184069  .00006535  00000+0  39597-3 0  9995
2 20465  82.4650 137.7697 0008256 293.6355  66.4008 15.10398295928385
SL-14 R/B               
1 20466U 90010B   25342.09130467  .00000712  00000+0  83632-4 0  9999
2 20466  82.5019 353.4132 0018458 239.5057 120.4336 14.83464388914904
SL-14 R/B               
1 20511U 90018B   25342.29114528  .00000979  00000+0  12012-3 0  9998
2 20511  82.5205 308.5227 0017367  37.3260 322.9157 14.82039736909049
HST                     
1 20580U 90037B   25342.28548427  .00010003  00000+0  34811-3 0  9993
2 20580  28.4697 302.8053 0001895 185.8337 174.2236 15.27955239759310
SL-16 R/B               
1 20625U 90046B   25342.15090399  .00000099  00000+0  75632-4 0  9990
2 20625  70.9986 130.1581 0011870  81.8496 278.3973 14.15000742835445
COSMOS 2084             
1 20663U 90055A   25342.24922059  .00004899  00000+0  35387-3 0  9993
2 20663  62.7912 287.2931 0032439 174.1419 186.0067 15.04974798922551
SL-6 R/B(2)             
1 20666U 90055D   25342.04377544  .00002973  00000+0  23378-3 0  9995
2 20666  62.7824 205.3718 0012257 305.3031  54.6922 15.03044587924414
SL-8 R/B                
1 20775U 90078B   25342.08436490  .00028442  00000+0  88095-3 0  9997
2 20775  82.9049 333.4764 0373473 321.5700  35.9438 14.85652478795687
SL-8 R/B                
1 21088U 91006B   25342.25989112  .00000121  00000+0  10678-3 0  9996
2 21088  82.9431 238.0448 0021361 293.1367 190.2622 13.77489364751480
OKEAN-3                 
1 21397U 91039A   25342.29139412  .00004830  00000+0  34652-3 0  9998
2 21397  82.5171  65.3529 0012822 282.7689  77.2104 15.04072582851295
COSMOS 2151             
1 21422U 91042A   25342.28623541  .00003316  00000+0  26659-3 0  9997
2 21422  82.4959 171.7951 0012981  14.3890 345.7701 14.99662543849497
