CCSDS_OMM_VERS = 2.0
CREATION_DATE  = 
ORIGINATOR     = 

OBJECT_NAME    = DELTA 2 R/B(1)
OBJECT_ID      = 1990-008B
CENTER_NAME    = EARTH
REF_FRAME      = TEME
TIME_SYSTEM    = UTC
MEAN_ELEMENT_THEORY = SGP/SGP4

EPOCH          = 2025-12-08T07:00:48.004128
MEAN_MOTION    = 15.44717384
ECCENTRICITY   = .01116903
INCLINATION    = 35.6072
RA_OF_ASC_NODE = 49.2428
ARG_OF_PERICENTER = 137.9941
MEAN_ANOMALY   = 222.9421

EPHEMERIS_TYPE = 0
CLASSIFICATION_TYPE = U
NORAD_CAT_ID   = 20453
ELEMENT_SET_NO = 999
REV_AT_EPOCH   = 91194
BSTAR          = .74551422E-3
MEAN_MOTION_DOT = .45778E-3
MEAN_MOTION_DDOT = 0

CCSDS_OMM_VERS = 2.0
CREATION_DATE  = 
ORIGINATOR     = 

OBJECT_NAME    = COSMOS 2058
OBJECT_ID      = 1990-010A
CENTER_NAME    = EARTH
REF_FRAME      = TEME
TIME_SYSTEM    = UTC
MEAN_ELEMENT_THEORY = SGP/SGP4

EPOCH          = 2025-12-07T22:07:27.035616
MEAN_MOTION    = 15.10398295
ECCENTRICITY   = .00082569
INCLINATION    = 82.4650
RA_OF_ASC_NODE = 137.7697
ARG_OF_PERICENTER = 293.6355
MEAN_ANOMALY   = 66.4008

EPHEMERIS_TYPE = 0
CLASSIFICATION_TYPE = U
NORAD_CAT_ID   = 20465
ELEMENT_SET_NO = 999
REV_AT_EPOCH   = 92838
BSTAR          = .39596727E-3
MEAN_MOTION_DOT = .6535E-4
MEAN_MOTION_DDOT = 0

CCSDS_OMM_VERS = 2.0
CREATION_DATE  = 
ORIGINATOR     = 

OBJECT_NAME    = SL-14 R/B
OBJECT_ID      = 1990-010B
CENTER_NAME    = EARTH
REF_FRAME      = TEME
TIME_SYSTEM    = UTC
MEAN_ELEMENT_THEORY = SGP/SGP4

EPOCH          = 2025-12-08T02:11:28.723488
MEAN_MOTION    = 14.83464388
ECCENTRICITY   = .00184581
INCLINATION    = 82.5019
RA_OF_ASC_NODE = 353.4132
ARG_OF_PERICENTER = 239.5057
MEAN_ANOMALY   = 120.4336

EPHEMERIS_TYPE = 0
CLASSIFICATION_TYPE = U
NORAD_CAT_ID   = 20466
ELEMENT_SET_NO = 999
REV_AT_EPOCH   = 91490
BSTAR          = .83632379E-4
MEAN_MOTION_DOT = .712E-5
MEAN_MOTION_DDOT = 0

CCSDS_OMM_VERS = 2.0
CREATION_DATE  = 
ORIGINATOR     = 

OBJECT_NAME    = SL-14 R/B
OBJECT_ID      = 1990-018B
CENTER_NAME    = EARTH
REF_FRAME      = TEME
TIME_SYSTEM    = UTC
MEAN_ELEMENT_THEORY = SGP/SGP4

EPOCH          = 2025-12-08T06:59:14.952192
MEAN_MOTION    = 14.82039736
ECCENTRICITY   = .00173677
INCLINATION    = 82.5205
RA_OF_ASC_NODE = 308.5227
ARG_OF_PERICENTER = 37.3260
MEAN_ANOMALY   = 322.9157

EPHEMERIS_TYPE = 0
CLASSIFICATION_TYPE = U
NORAD_CAT_ID   = 20511
ELEMENT_SET_NO = 999
REV_AT_EPOCH   = 90904
BSTAR          = .12011625E-3
MEAN_MOTION_DOT = .979E-5
MEAN_MOTION_DDOT = 0

CCSDS_OMM_VERS = 2.0
CREATION_DATE  = 
ORIGINATOR     = 

OBJECT_NAME    = HST
OBJECT_ID      = 1990-037B
CENTER_NAME    = EARTH
REF_FRAME      = TEME
TIME_SYSTEM    = UTC
MEAN_ELEMENT_THEORY = SGP/SGP4

EPOCH          = 2025-12-08T06:51:05.840928
MEAN_MOTION    = 15.27955239
ECCENTRICITY   = .00018952
INCLINATION    = 28.4697
RA_OF_ASC_NODE = 302.8053
ARG_OF_PERICENTER = 185.8337
MEAN_ANOMALY   = 174.2236

EPHEMERIS_TYPE = 0
CLASSIFICATION_TYPE = U
NORAD_CAT_ID   = 20580
ELEMENT_SET_NO = 999
REV_AT_EPOCH   = 75931
BSTAR          = .34811453E-3
MEAN_MOTION_DOT = .10003E-3
MEAN_MOTION_DDOT = 0

CCSDS_OMM_VERS = 2.0
CREATION_DATE  = 
ORIGINATOR     = 

OBJECT_NAME    = SL-16 R/B
OBJECT_ID      = 1990-046B
CENTER_NAME    = EARTH
REF_FRAME      = TEME
TIME_SYSTEM    = UTC
MEAN_ELEMENT_THEORY = SGP/SGP4

EPOCH          = 2025-12-08T03:37:18.104736
MEAN_MOTION    = 14.15000742
ECCENTRICITY   = .00118701
INCLINATION    = 70.9986
RA_OF_ASC_NODE = 130.1581
ARG_OF_PERICENTER = 81.8496
MEAN_ANOMALY   = 278.3973

EPHEMERIS_TYPE = 0
CLASSIFICATION_TYPE = U
NORAD_CAT_ID   = 20625
ELEMENT_SET_NO = 999
REV_AT_EPOCH   = 83544
BSTAR          = .7563175E-4
MEAN_MOTION_DOT = .99E-6
MEAN_MOTION_DDOT = 0

CCSDS_OMM_VERS = 2.0
CREATION_DATE  = 
ORIGINATOR     = 

OBJECT_NAME    = COSMOS 2084
OBJECT_ID      = 1990-055A
CENTER_NAME    = EARTH
REF_FRAME      = TEME
TIME_SYSTEM    = UTC
MEAN_ELEMENT_THEORY = SGP/SGP4

EPOCH          = 2025-12-08T05:58:52.658976
MEAN_MOTION    = 15.04974798
ECCENTRICITY   = .00324398
INCLINATION    = 62.7912
RA_OF_ASC_NODE = 287.2931
ARG_OF_PERICENTER = 174.1419
MEAN_ANOMALY   = 186.0067

EPHEMERIS_TYPE = 0
CLASSIFICATION_TYPE = U
NORAD_CAT_ID   = 20663
ELEMENT_SET_NO = 999
REV_AT_EPOCH   = 92255
BSTAR          = .35387296E-3
MEAN_MOTION_DOT = .4899E-4
MEAN_MOTION_DDOT = 0

CCSDS_OMM_VERS = 2.0
CREATION_DATE  = 
ORIGINATOR     = 

OBJECT_NAME    = SL-6 R/B(2)
OBJECT_ID      = 1990-055D
CENTER_NAME    = EARTH
REF_FRAME      = TEME
TIME_SYSTEM    = UTC
MEAN_ELEMENT_THEORY = SGP/SGP4

EPOCH          = 2025-12-08T01:03:02.198016
MEAN_MOTION    = 15.03044587
ECCENTRICITY   = .00122574
INCLINATION    = 62.7824
RA_OF_ASC_NODE = 205.3718
ARG_OF_PERICENTER = 305.3031
MEAN_ANOMALY   = 54.6922

EPHEMERIS_TYPE = 0
CLASSIFICATION_TYPE = U
NORAD_CAT_ID   = 20666
ELEMENT_SET_NO = 999
REV_AT_EPOCH   = 92441
BSTAR          = .23377531E-3
MEAN_MOTION_DOT = .2973E-4
MEAN_MOTION_DDOT = 0

CCSDS_OMM_VERS = 2.0
CREATION_DATE  = 
ORIGINATOR     = 

OBJECT_NAME    = SL-8 R/B
OBJECT_ID      = 1990-078B
CENTER_NAME    = EARTH
REF_FRAME      = TEME
TIME_SYSTEM    = UTC
MEAN_ELEMENT_THEORY = SGP/SGP4

EPOCH          = 2025-12-08T02:01:29.127360
MEAN_MOTION    = 14.85652478
ECCENTRICITY   = .03734732
INCLINATION    = 82.9049
RA_OF_ASC_NODE = 333.4764
ARG_OF_PERICENTER = 321.5700
MEAN_ANOMALY   = 35.9438

EPHEMERIS_TYPE = 0
CLASSIFICATION_TYPE = U
NORAD_CAT_ID   = 20775
ELEMENT_SET_NO = 999
REV_AT_EPOCH   = 79568
BSTAR          = .88095417E-3
MEAN_MOTION_DOT = .28442E-3
MEAN_MOTION_DDOT = 0

CCSDS_OMM_VERS = 2.0
CREATION_DATE  = 
ORIGINATOR     = 

OBJECT_NAME    = SL-8 R/B
OBJECT_ID      = 1991-006B
CENTER_NAME    = EARTH
REF_FRAME      = TEME
TIME_SYSTEM    = UTC
MEAN_ELEMENT_THEORY = SGP/SGP4

EPOCH          = 2025-12-08T06:14:14.592768
MEAN_MOTION    = 13.77489364
ECCENTRICITY   = .00213615
INCLINATION    = 82.9431
RA_OF_ASC_NODE = 238.0448
ARG_OF_PERICENTER = 293.1367
MEAN_ANOMALY   = 190.2622

EPHEMERIS_TYPE = 0
CLASSIFICATION_TYPE = U
NORAD_CAT_ID   = 21088
ELEMENT_SET_NO = 999
REV_AT_EPOCH   = 75148
BSTAR          = .1067796E-3
MEAN_MOTION_DOT = .121E-5
MEAN_MOTION_DDOT = 0

CCSDS_OMM_VERS = 2.0
CREATION_DATE  = 
ORIGINATOR     = 

OBJECT_NAME    = OKEAN-3
OBJECT_ID      = 1991-039A
CENTER_NAME    = EARTH
REF_FRAME      = TEME
TIME_SYSTEM    = UTC
MEAN_ELEMENT_THEORY = SGP/SGP4

EPOCH          = 2025-12-08T06:59:36.451968
MEAN_MOTION    = 15.04072582
ECCENTRICITY   = .00128227
INCLINATION    = 82.5171
RA_OF_ASC_NODE = 65.3529
ARG_OF_PERICENTER = 282.7689
MEAN_ANOMALY   = 77.2104

EPHEMERIS_TYPE = 0
CLASSIFICATION_TYPE = U
NORAD_CAT_ID   = 21397
ELEMENT_SET_NO = 999
REV_AT_EPOCH   = 85129
BSTAR          = .34652178E-3
MEAN_MOTION_DOT = .483E-4
MEAN_MOTION_DDOT = 0

CCSDS_OMM_VERS = 2.0
CREATION_DATE  = 
ORIGINATOR     = 

OBJECT_NAME    = COSMOS 2151
OBJECT_ID      = 1991-042A
CENTER_NAME    = EARTH
REF_FRAME      = TEME
TIME_SYSTEM    = UTC
MEAN_ELEMENT_THEORY = SGP/SGP4

EPOCH          = 2025-12-08T06:52:10.739424
MEAN_MOTION    = 14.99662543
ECCENTRICITY   = .00129818
INCLINATION    = 82.4959
RA_OF_ASC_NODE = 171.7951
ARG_OF_PERICENTER = 14.3890
MEAN_ANOMALY   = 345.7701

EPHEMERIS_TYPE = 0
CLASSIFICATION_TYPE = U
NORAD_CAT_ID   = 21422
ELEMENT_SET_NO = 999
REV_AT_EPOCH   = 84949
BSTAR          = .26658906E-3
MEAN_MOTION_DOT = .3316E-4
MEAN_MOTION_DDOT = 0

